ZHONGXING-12            
1 39017U 12067A   24346.11079608 -.00000190  00000+0  00000+0 0  9996
2 39017   0.0186  28.7921 0003598 234.1837 304.7260  1.00270087 44161
EXPRESS-AM44            
1 33595U 09007A   24345.87682062 -.00000073  00000+0  00000+0 0  9997
2 33595   2.0343  85.1988 0004843 176.1276 123.4234  1.00270658 46735
INSAT-3DR               
1 41752U 16054A   24345.39345958 -.00000061  00000+0  00000+0 0  9995
2 41752   0.0912  96.3644 0014155 173.0476  25.8588  1.00270573 30261
ARABSAT-6A              
1 44186U 19021A   24345.81359622  .00000170  00000+0  00000+0 0  9996
2 44186   0.0324 349.9993 0007706 280.5454 132.8951  1.00274876 20600
JCSAT-13                
1 38331U 12023A   24346.04659135 -.00000340  00000+0  00000+0 0  9994
2 38331   0.0169 325.6351 0002479 285.9088 329.4928  1.00271505 46023
JCSAT-18 (KACIFIC 1)    
1 44868U 19091A   24345.69439609 -.00000185  00000+0  00000+0 0  9997
2 44868   0.0115 292.8406 0000450 341.7041 205.3519  1.00269469 18460
EXPRESS AMU-3           
1 50002U 21123B   24345.49279192 -.00000304  00000+0  00000+0 0  9993
2 50002   0.0217 323.7492 0000307 196.0089 200.2431  1.00269268 10953
SKYNET 5B               
1 32294U 07056B   24345.81255365  .00000156  00000+0  00000+0 0  9991
2 32294   3.8383  80.0795 0003813 173.5558 143.9736  1.00270619 62642
ANIK F3                 
1 31102U 07009A   24345.71255413  .00000016  00000+0  00000+0 0  9994
2 31102   0.0205  62.5974 0001928 207.6762 307.4706  1.00269613 41010
USA 159 (DSP 21)        
1 26880U 01033A   24345.49493824 -.00000290  00000+0  00000+0 0  9992
2 26880  12.2605  20.1680 0001724 251.9543 296.5994  1.00267115 26063
IRNSS-1F                
1 41384U 16015A   24344.88495786  .00000176  00000+0  00000+0 0  9997
2 41384   3.9797 111.7536 0025857 181.3625 137.2094  1.00278731 32105
FM-5                    
1 35493U 09034A   24345.86196406 -.00000184  00000+0  00000+0 0  9990
2 35493   0.0154 297.4298 0001350 229.4016 137.4224  1.00270243 41096
BEIDOU-3S IGSO-1S       
1 40549U 15019A   24344.84979984 -.00000194  00000+0  00000+0 0  9996
2 40549  50.2476 302.1098 0034973 198.7764 340.3188  1.00264697 35504
ECHOSTAR 15             
1 36792U 10034A   24345.79535132 -.00000265  00000+0  00000+0 0  9990
2 36792   0.0323  77.3769 0002422 150.8253  76.4830  1.00268816 52771
APSTAR-9                
1 40982U 15059A   24345.90722883 -.00000250  00000+0  00000+0 0  9996
2 40982   0.0411  62.7966 0002718 176.5834 309.3676  1.00271464 33576
JCSAT-5A                
1 29045U 06010A   24345.97673941 -.00000312  00000+0  00000+0 0  9996
2 29045   0.0217 342.5727 0002149 293.3270 287.9479  1.00270263 68397
INMARSAT 5-F3           
1 40882U 15042A   24343.48047161  .00000066  00000+0  00000+0 0  9991
2 40882   0.0269  66.9428 0000594  89.7063 273.6559  1.00270859 33989
EUTELSAT 172B           
1 42741U 17029B   24346.12756403  .00000010  00000+0  00000+0 0  9993
2 42741   0.0135 278.3144 0000139 270.3317 109.6137  1.00270438 28163
BEIDOU-3 G2             
1 45344U 20017A   24346.10931911 -.00000127  00000+0  00000+0 0  9993
2 45344   2.5624  35.6934 0004539 223.8862 300.1360  1.00270947 17723
EXPRESS 103             
1 45985U 20053A   24346.11262057 -.00000264  00000+0  00000+0 0  9995
2 45985   0.0181 286.3891 0000398 222.0270  68.9495  1.00271650 16094
SYRACUSE 4A             
1 49333U 21095B   24343.52964642  .00000151  00000+0  00000+0 0  9998
2 49333   0.0171 356.1359 0001619 255.5358  62.2864  1.00271521 12386
INTELSAT 35E (IS-35E)   
1 42818U 17041A   24346.08655639 -.00000222  00000+0  00000+0 0  9992
2 42818   0.0224 347.9711 0002667 285.2393 163.7514  1.00269644 27264
FENGYUN 4B              
1 48808U 21047A   24346.11401066 -.00000312  00000+0  00000+0 0  9995
2 48808   0.0304 313.9299 0009536 107.8780 164.0552  1.00267141 13017
